NORAD_CAT_ID,OBJECT_NAME,OBJECT_TYPE,EPOCH,MEAN_MOTION,ECCENTRICITY,INCLINATION,RA_OF_ASC_NODE,ARG_OF_PERICENTER,MEAN_ANOMALY,BSTAR,MEAN_MOTION_DOT,MEAN_MOTION_DDOT,TLE_LINE0,TLE_LINE1,TLE_LINE2,SEMIMAJOR_AXIS,PERIOD,APOGEE,PERIGEE,DECAYED
50838.0,STARLINK-3322,PAYLOAD,2024-07-06 20:18:42,15.10167368,3.37e-05,53.216,36.186,188.1802,171.9185,0.0014031,0.00022943,0.0,0 STARLINK-3322,1 50838U 22001AM  24188.84632986  .00022943  00000-0  14031-2 0  9999,2 50838  53.2160  36.1860 0000337 188.1802 171.9185 15.10167368138123,6913.826,95.354,535.924,535.458,0.0
50838.0,STARLINK-3322,PAYLOAD,2024-07-07 20:08:12,15.10220117,2.39e-05,53.2165,31.72,209.0261,151.0718,0.0015213,0.00024944,0.0,0 STARLINK-3322,1 50838U 22001AM  24189.83903671  .00024944  00000-0  15213-2 0  9997,2 50838  53.2165  31.7200 0000239 209.0261 151.0718 15.10220117139472,6913.665,95.35,535.695,535.365,0.0
50838.0,STARLINK-3322,PAYLOAD,2024-07-08 13:36:28,15.10257399,2.67e-05,53.2172,28.4439,205.0535,155.0445,0.0014605,0.00023957,0.0,0 STARLINK-3322,1 50838U 22001AM  24190.56700021  .00023957  00000-0  14605-2 0  9990,2 50838  53.2172  28.4439 0000267 205.0535 155.0445 15.10257399138380,6913.551,95.348,535.601,535.232,0.0
50838.0,STARLINK-3322,PAYLOAD,2024-07-08 19:57:39,15.102737,2.24e-05,53.217,27.2532,236.6839,123.4133,0.0016258,0.00026724,0.0,0 STARLINK-3322,1 50838U 22001AM  24190.83170920  .00026724  00000-0  16258-2 0  9990,2 50838  53.2170  27.2532 0000224 236.6839 123.4133 15.10273700138421,6913.502,95.347,535.521,535.212,0.0
50838.0,STARLINK-3322,PAYLOAD,2024-07-08 23:08:15,15.10280529,2.24e-05,53.217,26.6579,242.7609,117.3361,0.0016039,0.00026364,0.0,0 STARLINK-3322,1 50838U 22001AM  24190.96406292  .00026364  00000-0  16039-2 0  9995,2 50838  53.2170  26.6579 0000224 242.7609 117.3361 15.10280529139645,6913.481,95.347,535.501,535.191,0.0
50838.0,STARLINK-3322,PAYLOAD,2024-07-09 13:25:53,15.10310084,2.78e-05,53.2171,23.9776,250.9849,109.1113,0.0013989,0.00022965,0.0,0 STARLINK-3322,1 50838U 22001AM  24191.55964697  .00022965  00000-0  13989-2 0  9993,2 50838  53.2171  23.9776 0000278 250.9849 109.1113 15.10310084138532,6913.391,95.345,535.448,535.063,0.0
50838.0,STARLINK-3322,PAYLOAD,2024-07-09 19:47:03,15.10323988,3.12e-05,53.217,22.7871,266.3154,93.7803,0.0014312,0.00023513,0.0,0 STARLINK-3322,1 50838U 22001AM  24191.82434689  .00023513  00000-0  14312-2 0  9997,2 50838  53.2170  22.7871 0000312 266.3154  93.7803 15.10323988138578,6913.348,95.344,535.429,534.997,0.0
50838.0,STARLINK-3322,PAYLOAD,2024-07-10 13:15:15,15.10359039,3.69e-05,53.2172,19.5118,269.5347,90.5603,0.0013627,0.00022392,0.0,0 STARLINK-3322,1 50838U 22001AM  24192.55226087  .00022392  00000-0  13627-2 0  9991,2 50838  53.2172  19.5118 0000369 269.5347  90.5603 15.10359039139883,6913.241,95.342,535.361,534.851,0.0
50838.0,STARLINK-3322,PAYLOAD,2024-07-11 11:29:17,15.10407805,4.49e-05,53.2172,15.3432,271.3524,88.7418,0.0014484,0.00023855,0.0,0 STARLINK-3322,1 50838U 22001AM  24193.47867045  .00023855  00000-0  14484-2 0  9995,2 50838  53.2172  15.3432 0000449 271.3524  88.7418 15.10407805138824,6913.092,95.338,535.268,534.647,0.0
50838.0,STARLINK-3322,PAYLOAD,2024-07-12 04:57:25,15.10448513,5.12e-05,53.2169,12.0677,285.1539,74.9397,0.001593,0.00026305,0.0,0 STARLINK-3322,1 50838U 22001AM  24194.20654238  .00026305  00000-0  15930-2 0  9995,2 50838  53.2169  12.0677 0000512 285.1539  74.9397 15.10448513140136,6912.968,95.336,535.187,534.479,0.0
50838.0,STARLINK-3322,PAYLOAD,2024-07-12 11:18:33,15.10462545,5.03e-05,53.2167,10.8765,288.3263,71.7675,0.001586,0.00026198,0.0,0 STARLINK-3322,1 50838U 22001AM  24194.47121866  .00026198  00000-0  15860-2 0  9992,2 50838  53.2167  10.8765 0000503 288.3263  71.7675 15.10462545138971,6912.925,95.335,535.138,534.443,0.0
50838.0,STARLINK-3322,PAYLOAD,2024-07-12 19:14:57,15.10480869,6.12e-05,53.2166,9.3881,293.8725,66.2204,0.0017042,0.00028195,0.0,0 STARLINK-3322,1 50838U 22001AM  24194.80206014  .00028195  00000-0  17042-2 0  9991,2 50838  53.2166   9.3881 0000612 293.8725  66.2204 15.10480869139020,6912.869,95.334,535.158,534.311,0.0
50838.0,STARLINK-3322,PAYLOAD,2024-07-13 04:46:39,15.10503535,6.62e-05,53.2165,7.6011,294.7632,65.3292,0.0016415,0.0002716,0.0,0 STARLINK-3322,1 50838U 22001AM  24195.19906412  .00027160  00000-0  16415-2 0  9997,2 50838  53.2165   7.6011 0000662 294.7632  65.3292 15.10503535139086,6912.8,95.332,535.123,534.208,0.0
50838.0,STARLINK-3322,PAYLOAD,2024-07-13 20:39:26,15.10546655,7.53e-05,53.2167,4.6234,307.9488,52.1436,0.0021418,0.00035611,0.0,0 STARLINK-3322,1 50838U 22001AM  24195.86072501  .00035611  00000-0  21418-2 0  9993,2 50838  53.2167   4.6234 0000753 307.9488  52.1436 15.10546655140388,6912.669,95.33,535.054,534.013,0.0
50838.0,STARLINK-3322,PAYLOAD,2024-07-14 10:56:56,15.10580744,7.97e-05,53.2169,1.943,313.1896,46.903,0.0018592,0.00030883,0.0,0 STARLINK-3322,1 50838U 22001AM  24196.45620401  .00030883  00000-0  18592-2 0  9992,2 50838  53.2169   1.9430 0000797 313.1896  46.9030 15.10580744139272,6912.565,95.328,534.981,533.879,0.0
50838.0,STARLINK-3322,PAYLOAD,2024-07-14 17:18:02,15.10591911,8.61e-05,53.2171,0.7521,317.7378,42.3549,0.0018218,0.00030262,0.0,0 STARLINK-3322,1 50838U 22001AM  24196.72085855  .00030262  00000-0  18218-2 0  9996,2 50838  53.2171   0.7521 0000861 317.7378  42.3549 15.10591911140512,6912.531,95.327,534.991,533.801,0.0
50838.0,STARLINK-3322,PAYLOAD,2024-07-15 04:24:56,15.10635975,9.53e-05,53.2178,358.6669,320.9246,39.1678,0.0023772,0.00039679,0.0,0 STARLINK-3322,1 50838U 22001AM  24197.18399108  .00039679  00000-0  23772-2 0  9998,2 50838  53.2178 358.6669 0000953 320.9246  39.1678 15.10635975140582,6912.396,95.324,534.92,533.602,0.0
50838.0,STARLINK-3322,PAYLOAD,2024-07-15 13:56:34,15.10678469,0.0001049,53.2174,356.8798,323.2684,36.8237,0.0026694,0.00044676,0.0,0 STARLINK-3322,1 50838U 22001AM  24197.58095078  .00044676  00000-0  26694-2 0  9990,2 50838  53.2174 356.8798 0001049 323.2684  36.8237 15.10678469139443,6912.267,95.321,534.857,533.407,0.0
50838.0,STARLINK-3322,PAYLOAD,2024-07-15 17:07:06,15.10693298,0.000103,53.2173,356.2837,321.2913,38.8006,0.0027737,0.00046464,0.0,0 STARLINK-3322,1 50838U 22001AM  24197.71326800  .00046464  00000-0  27737-2 0  9991,2 50838  53.2173 356.2837 0001030 321.2913  38.8006 15.10693298140662,6912.221,95.32,534.798,533.374,0.0
50838.0,STARLINK-3322,PAYLOAD,2024-07-16 13:45:33,15.10796234,0.0001343,53.2177,352.4116,325.8534,34.2373,0.0031222,0.00052533,0.0,0 STARLINK-3322,1 50838U 22001AM  24198.57330015  .00052533  00000-0  31222-2 0  9997,2 50838  53.2177 352.4116 0001343 325.8534  34.2373 15.10796234140795,6911.907,95.314,534.701,532.844,0.0
50838.0,STARLINK-3322,PAYLOAD,2024-07-16 16:56:04,15.10809204,0.0001378,53.2177,351.8158,325.4931,34.5972,0.0030905,0.00052012,0.0,0 STARLINK-3322,1 50838U 22001AM  24198.70560796  .00052012  00000-0  30905-2 0  9992,2 50838  53.2177 351.8158 0001378 325.4931  34.5972 15.10809204139618,6911.868,95.313,534.685,532.78,0.0
50838.0,STARLINK-3322,PAYLOAD,2024-07-17 13:34:25,15.10920169,0.0001714,53.2175,347.9436,328.138,31.9509,0.0037674,0.00063769,0.0,0 STARLINK-3322,1 50838U 22001AM  24199.56557109  .00063769  00000-0  37674-2 0  9992,2 50838  53.2175 347.9436 0001714 328.1380  31.9509 15.10920169140942,6911.529,95.306,534.579,532.21,0.0
50838.0,STARLINK-3322,PAYLOAD,2024-07-17 16:44:55,15.10930163,0.0001672,53.2178,347.347,317.2471,42.8392,0.003668,0.00062082,0.0,0 STARLINK-3322,1 50838U 22001AM  24199.69786763  .00062082  00000-0  36680-2 0  9999,2 50838  53.2178 347.3470 0001672 317.2471  42.8392 15.10930163139764,6911.499,95.306,534.52,532.208,0.0
50838.0,STARLINK-3322,PAYLOAD,2024-07-18 13:23:10,15.11035637,0.0002004,53.2171,343.4721,314.6814,45.4016,0.0034523,0.00058556,0.0,0 STARLINK-3322,1 50838U 22001AM  24200.55776164  .00058556  00000-0  34523-2 0  9996,2 50838  53.2171 343.4721 0002004 314.6814  45.4016 15.11035637139894,6911.177,95.299,534.427,531.657,0.0
50838.0,STARLINK-3322,PAYLOAD,2024-07-18 16:33:40,15.11051793,0.0001873,53.2177,342.8787,312.6878,47.3958,0.0036412,0.00061832,0.0,0 STARLINK-3322,1 50838U 22001AM  24200.69004814  .00061832  00000-0  36412-2 0  9997,2 50838  53.2177 342.8787 0001873 312.6878  47.3958 15.11051793141111,6911.128,95.298,534.288,531.699,0.0
50838.0,STARLINK-3322,PAYLOAD,2024-07-19 14:47:03,15.11163917,0.0002265,53.2174,338.7068,310.6585,49.4211,0.0028547,0.00048473,0.0,0 STARLINK-3322,1 50838U 22001AM  24201.61601187  .00048473  00000-0  28547-2 0  9992,2 50838  53.2174 338.7068 0002265 310.6585  49.4211 15.11163917140052,6910.786,95.291,534.217,531.086,0.0
50838.0,STARLINK-3322,PAYLOAD,2024-07-19 16:22:17,15.11170695,0.0002434,53.2172,338.4087,313.2674,46.8116,0.0028627,0.0004862,0.0,0 STARLINK-3322,1 50838U 22001AM  24201.68214998  .00048620  00000-0  28627-2 0  9992,2 50838  53.2172 338.4087 0002434 313.2674  46.8116 15.11170695140061,6910.766,95.29,534.313,530.948,0.0
50838.0,STARLINK-3322,PAYLOAD,2024-07-20 01:53:42,15.11215117,0.0002483,53.2169,336.6214,315.2779,44.8014,0.0029975,0.00051004,0.0,0 STARLINK-3322,1 50838U 22001AM  24202.07896978  .00051004  00000-0  29975-2 0  9997,2 50838  53.2169 336.6214 0002483 315.2779  44.8014 15.11215117141325,6910.63,95.288,534.211,530.779,0.0
50838.0,STARLINK-3322,PAYLOAD,2024-07-20 14:35:35,15.11261825,0.0002475,53.2174,334.2375,314.8092,45.27,0.0027918,0.00047522,0.0,0 STARLINK-3322,1 50838U 22001AM  24202.60804774  .00047522  00000-0  27918-2 0  9994,2 50838  53.2174 334.2375 0002475 314.8092  45.2700 15.11261825140207,6910.488,95.285,534.063,530.642,0.0
50838.0,STARLINK-3322,PAYLOAD,2024-07-20 19:21:17,15.11275379,0.0002561,53.2169,333.3432,316.9281,43.1511,0.0027515,0.00046845,0.0,0 STARLINK-3322,1 50838U 22001AM  24202.80644902  .00046845  00000-0  27515-2 0  9991,2 50838  53.2169 333.3432 0002561 316.9281  43.1511 15.11275379141436,6910.446,95.284,534.081,530.542,0.0
